[{"OBJECT_NAME":"STARLINK-34470","OBJECT_ID":"2025-142H","EPOCH":"2026-03-09T22:45:07.894656","MEAN_MOTION":14.98329357,"ECCENTRICITY":0.00025936,"INCLINATION":70.0014,"RA_OF_ASC_NODE":313.6141,"ARG_OF_PERICENTER":265.5374,"MEAN_ANOMALY":94.5489,"EPHEMERIS_TYPE":0,"CLASSIFICATION_TYPE":"U","NORAD_CAT_ID":64703,"ELEMENT_SET_NO":999,"REV_AT_EPOCH":3950,"BSTAR":0.00061597717,"MEAN_MOTION_DOT":7.264e-5,"MEAN_MOTION_DDOT":0},{"OBJECT_NAME":"THOR ABLESTAR DEB","OBJECT_ID":"1961-015FQ","EPOCH":"2026-03-09T11:46:19.148160","MEAN_MOTION":14.93919582,"ECCENTRICITY":0.00285609,"INCLINATION":66.0574,"RA_OF_ASC_NODE":102.4005,"ARG_OF_PERICENTER":353.0053,"MEAN_ANOMALY":7.0669,"EPHEMERIS_TYPE":0,"CLASSIFICATION_TYPE":"U","NORAD_CAT_ID":478,"ELEMENT_SET_NO":999,"REV_AT_EPOCH":36928,"BSTAR":0.0013681176,"MEAN_MOTION_DOT":0.00014607,"MEAN_MOTION_DDOT":0}]
